[{"OBJECT_NAME":"GCOM-W1 (SHIZUKU)","OBJECT_ID":"2012-025A","EPOCH":"2026-03-09T21:00:27.789696","MEAN_MOTION":14.57098932,"ECCENTRICITY":0.00014794,"INCLINATION":98.2054,"RA_OF_ASC_NODE":10.9333,"ARG_OF_PERICENTER":74.2866,"MEAN_ANOMALY":352.8435,"EPHEMERIS_TYPE":0,"CLASSIFICATION_TYPE":"U","NORAD_CAT_ID":38337,"ELEMENT_SET_NO":999,"REV_AT_EPOCH":73457,"BSTAR":0.00019640051,"MEAN_MOTION_DOT":8.39e-6,"MEAN_MOTION_DDOT":0},{"OBJECT_NAME":"COSMOS 2251 DEB","OBJECT_ID":"1993-036AXH","EPOCH":"2026-03-08T19:23:45.177792","MEAN_MOTION":14.65847922,"ECCENTRICITY":0.0058335,"INCLINATION":74.0127,"RA_OF_ASC_NODE":110.5902,"ARG_OF_PERICENTER":237.0484,"MEAN_ANOMALY":246.138,"EPHEMERIS_TYPE":0,"CLASSIFICATION_TYPE":"U","NORAD_CAT_ID":36046,"ELEMENT_SET_NO":999,"REV_AT_EPOCH":65264,"BSTAR":0.00054546947,"MEAN_MOTION_DOT":3.023e-5,"MEAN_MOTION_DDOT":0}]
